[
    {
        "Altitude(m)": 622200.1475462997,
        "Argument of Periapsis(deg)": 0.0,
        "Eccentricity": 0.0,
        "Inclination(deg)": 60.0,
        "Latitude(deg)": -52.16264958064115,
        "Longitude(deg)": -57.63918230330321,
        "Mean Anomaly(deg)": -65.45449999999998,
        "RAAN(deg)": 90.0,
        "Satellite Name": "Test1 414",
        "Satellite Number": 414,
        "Semi-Major Axis(m)": 6980739.136638005,
        "Time(s)": 0
    },
    {
        "Altitude(m)": 622058.3151710526,
        "Argument of Periapsis(deg)": 0.00010418945913296404,
        "Eccentricity": 0.0,
        "Inclination(deg)": 60.0,
        "Latitude(deg)": -51.799398550564206,
        "Longitude(deg)": -56.8711233832515,
        "Mean Anomaly(deg)": -64.83439385453815,
        "RAAN(deg)": 89.99957995086027,
        "Satellite Name": "Test1 414",
        "Satellite Number": 414,
        "Semi-Major Axis(m)": 6980739.136638005,
        "Time(s)": 10
    }
]